{"type": "FeatureCollection", "features": [ {"type": "Feature", "properties": {"norad_id": 28649, "name": "IRS-P5 (CARTOSAT-1)", "group": "resource", "lat": -82.31219822494081, "lon": 105.18377157927937, "alt_km": 604.2074614656913, "timestamp": "2025-12-26T03:50:11.744193+00:00", "meta": {"OBJECT_NAME": "IRS-P5 (CARTOSAT-1)", "OBJECT_ID": "2005-017A", "EPOCH": "2025-12-25T15:20:36.578400", "MEAN_MOTION": 14.90446598, "ECCENTRICITY": 4.86e-05, "INCLINATION": 97.5483, "RA_OF_ASC_NODE": 25.4801, "ARG_OF_PERICENTER": 66.4428, "MEAN_ANOMALY": 293.6842, "EPHEMERIS_TYPE": 0, "CLASSIFICATION_TYPE": "U", "NORAD_CAT_ID": 28649, "ELEMENT_SET_NO": 999, "REV_AT_EPOCH": 11796, "BSTAR": 0.00017532, "MEAN_MOTION_DOT": 1.657e-05, "MEAN_MOTION_DDOT": 0}, "tle": {"line1": "1 28649U 05017A   25359.63931225  .00001657  00000+0  17532-3 0  9996", "line2": "2 28649  97.5483  25.4801 0000486  66.4428 293.6842 14.90446598117963"}}, "geometry": {"type": "Point", "coordinates": [105.18377157927937, -82.31219822494081]}}, {"type": "Feature", "properties": {"norad_id": 28893, "name": "SINAH 1", "group": "resource", "lat": 67.58670185000229, "lon": 108.12809218029892, "alt_km": 664.0271479059911, "timestamp": "2025-12-26T03:50:11.744204+00:00", "meta": {"OBJECT_NAME": "SINAH 1", "OBJECT_ID": "2005-043D", "EPOCH": "2025-12-25T19:19:14.986848", "MEAN_MOTION": 14.63975959, "ECCENTRICITY": 0.0015731, "INCLINATION": 98.261, "RA_OF_ASC_NODE": 128.3978, "ARG_OF_PERICENTER": 98.9275, "MEAN_ANOMALY": 261.3709, "EPHEMERIS_TYPE": 0, "CLASSIFICATION_TYPE": "U", "NORAD_CAT_ID": 28893, "ELEMENT_SET_NO": 999, "REV_AT_EPOCH": 7515, "BSTAR": 0.0001014, "MEAN_MOTION_DOT": 4.83e-06, "MEAN_MOTION_DDOT": 0}, "tle": {"line1": "1 28893U 05043D   25359.80503457  .00000483  00000+0  10140-3 0  9991", "line2": "2 28893  98.2610 128.3978 0015731  98.9275 261.3709 14.63975959 75157"}}, "geometry": {"type": "Point", "coordinates": [108.12809218029892, 67.58670185000229]}}, {"type": "Feature", "properties": {"norad_id": 29079, "name": "EROS B", "group": "resource", "lat": 7.8918363253741175, "lon": -61.560673735600574, "alt_km": 355.4316419924271, "timestamp": "2025-12-26T03:50:11.744215+00:00", "meta": {"OBJECT_NAME": "EROS B", "OBJECT_ID": "2006-014A", "EPOCH": "2025-12-25T20:59:57.621408", "MEAN_MOTION": 15.72645054, "ECCENTRICITY": 0.0004589, "INCLINATION": 97.3449, "RA_OF_ASC_NODE": 117.1145, "ARG_OF_PERICENTER": 312.365, "MEAN_ANOMALY": 47.7225, "EPHEMERIS_TYPE": 0, "CLASSIFICATION_TYPE": "U", "NORAD_CAT_ID": 29079, "ELEMENT_SET_NO": 999, "REV_AT_EPOCH": 9286, "BSTAR": 0.0015312, "MEAN_MOTION_DOT": 0.00209946, "MEAN_MOTION_DDOT": 0}, "tle": {"line1": "1 29079U 06014A   25359.87497247  .00209946  00000+0  15312-2 0  9993", "line2": "2 29079  97.3449 117.1145 0004589 312.3650  47.7225 15.72645054 92862"}}, "geometry": {"type": "Point", "coordinates": [-61.560673735600574, 7.8918363253741175]}}, {"type": "Feature", "properties": {"norad_id": 29228, "name": "RESURS-DK 1", "group": "resource", "lat": -3.643245035889961, "lon": -111.51112903317133, "alt_km": 530.078351615326, "timestamp": "2025-12-26T03:50:11.744225+00:00", "meta": {"OBJECT_NAME": "RESURS-DK 1", "OBJECT_ID": "2006-021A", "EPOCH": "2025-12-25T12:44:18.731040", "MEAN_MOTION": 15.12230969, "ECCENTRICITY": 0.0006922, "INCLINATION": 69.9336, "RA_OF_ASC_NODE": 68.7803, "ARG_OF_PERICENTER": 247.3291, "MEAN_ANOMALY": 112.7143, "EPHEMERIS_TYPE": 0, "CLASSIFICATION_TYPE": "U", "NORAD_CAT_ID": 29228, "ELEMENT_SET_NO": 999, "REV_AT_EPOCH": 7631, "BSTAR": 0.00018237, "MEAN_MOTION_DOT": 3.053e-05, "MEAN_MOTION_DDOT": 0}, "tle": {"line1": "1 29228U 06021A   25359.53077235  .00003053  00000+0  18237-3 0  9992", "line2": "2 29228  69.9336  68.7803 0006922 247.3291 112.7143 15.12230969 76314"}}, "geometry": {"type": "Point", "coordinates": [-111.51112903317133, -3.643245035889961]}}, {"type": "Feature", "properties": {"norad_id": 29268, "name": "ARIRANG-2 (KOMPSAT-2)", "group": "resource", "lat": -0.19648292949842877, "lon": -171.99446444510048, "alt_km": 682.80412427603, "timestamp": "2025-12-26T03:50:11.744237+00:00", "meta": {"OBJECT_NAME": "ARIRANG-2 (KOMPSAT-2)", "OBJECT_ID": "2006-031A", "EPOCH": "2025-12-25T20:12:29.795328", "MEAN_MOTION": 14.645053, "ECCENTRICITY": 0.0013124, "INCLINATION": 97.8258, "RA_OF_ASC_NODE": 187.6763, "ARG_OF_PERICENTER": 263.9537, "MEAN_ANOMALY": 221.07, "EPHEMERIS_TYPE": 0, "CLASSIFICATION_TYPE": "U", "NORAD_CAT_ID": 29268, "ELEMENT_SET_NO": 999, "REV_AT_EPOCH": 3610, "BSTAR": 0.00010576, "MEAN_MOTION_DOT": 5.16e-06, "MEAN_MOTION_DDOT": 0}, "tle": {"line1": "1 29268U 06031A   25359.84201152  .00000516  00000+0  10576-3 0  9997", "line2": "2 29268  97.8258 187.6763 0013124 263.9537 221.0700 14.64505300 36102"}}, "geometry": {"type": "Point", "coordinates": [-171.99446444510048, -0.19648292949842877]}}, {"type": "Feature", "properties": {"norad_id": 29709, "name": "LAPAN-TUBSAT", "group": "resource", "lat": -55.703558345926595, "lon": 158.49948335451998, "alt_km": 626.9651572336852, "timestamp": "2025-12-26T03:50:11.744247+00:00", "meta": {"OBJECT_NAME": "LAPAN-TUBSAT", "OBJECT_ID": "2007-001A", "EPOCH": "2025-12-25T21:55:34.398912", "MEAN_MOTION": 14.85687677, "ECCENTRICITY": 0.0013127, "INCLINATION": 98.1266, "RA_OF_ASC_NODE": 350.3411, "ARG_OF_PERICENTER": 34.8221, "MEAN_ANOMALY": 325.385, "EPHEMERIS_TYPE": 0, "CLASSIFICATION_TYPE": "U", "NORAD_CAT_ID": 29709, "ELEMENT_SET_NO": 999, "REV_AT_EPOCH": 2542, "BSTAR": 2.7387e-05, "MEAN_MOTION_DOT": 1.8e-06, "MEAN_MOTION_DDOT": 0}, "tle": {"line1": "1 29709U 07001A   25359.91359258  .00000180  00000+0  27387-4 0  9990", "line2": "2 29709  98.1266 350.3411 0013127  34.8221 325.3850 14.85687677 25420"}}, "geometry": {"type": "Point", "coordinates": [158.49948335451998, -55.703558345926595]}}, {"type": "Feature", "properties": {"norad_id": 31113, "name": "HAIYANG-1B", "group": "resource", "lat": 2.18504207133825, "lon": -16.43598344645323, "alt_km": 781.4356217009326, "timestamp": "2025-12-26T03:50:11.744259+00:00", "meta": {"OBJECT_NAME": "HAIYANG-1B", "OBJECT_ID": "2007-010A", "EPOCH": "2025-12-25T19:26:08.131776", "MEAN_MOTION": 14.30969241, "ECCENTRICITY": 0.0013561, "INCLINATION": 98.3331, "RA_OF_ASC_NODE": 343.5488, "ARG_OF_PERICENTER": 0.4931, "MEAN_ANOMALY": 359.6264, "EPHEMERIS_TYPE": 0, "CLASSIFICATION_TYPE": "U", "NORAD_CAT_ID": 31113, "ELEMENT_SET_NO": 999, "REV_AT_EPOCH": 97583, "BSTAR": 6.3875e-05, "MEAN_MOTION_DOT": 1.26e-06, "MEAN_MOTION_DDOT": 0}, "tle": {"line1": "1 31113U 07010A   25359.80981634  .00000126  00000+0  63875-4 0  9991", "line2": "2 31113  98.3331 343.5488 0013561   0.4931 359.6264 14.30969241975832"}}, "geometry": {"type": "Point", "coordinates": [-16.43598344645323, 2.18504207133825]}}, {"type": "Feature", "properties": {"norad_id": 31598, "name": "COSMO-SKYMED 1", "group": "resource", "lat": -38.4032852107735, "lon": -168.04609255508024, "alt_km": 586.5227627903223, "timestamp": "2025-12-26T03:50:11.744270+00:00", "meta": {"OBJECT_NAME": "COSMO-SKYMED 1", "OBJECT_ID": "2007-023A", "EPOCH": "2025-12-25T19:58:58.083744", "MEAN_MOTION": 14.95860743, "ECCENTRICITY": 0.0001195, "INCLINATION": 97.8839, "RA_OF_ASC_NODE": 185.3184, "ARG_OF_PERICENTER": 77.5571, "MEAN_ANOMALY": 282.5783, "EPHEMERIS_TYPE": 0, "CLASSIFICATION_TYPE": "U", "NORAD_CAT_ID": 31598, "ELEMENT_SET_NO": 999, "REV_AT_EPOCH": 386, "BSTAR": 0.00030235, "MEAN_MOTION_DOT": 3.32e-05, "MEAN_MOTION_DDOT": 0}, "tle": {"line1": "1 31598U 07023A   25359.83261671  .00003320  00000+0  30235-3 0  9999", "line2": "2 31598  97.8839 185.3184 0001195  77.5571 282.5783 14.95860743  3869"}}, "geometry": {"type": "Point", "coordinates": [-168.04609255508024, -38.4032852107735]}}, {"type": "Feature", "properties": {"norad_id": 31698, "name": "TERRASAR-X", "group": "resource", "lat": 22.110797283601393, "lon": 2.2988934860670525, "alt_km": 507.48209704484, "timestamp": "2025-12-26T03:50:11.744281+00:00", "meta": {"OBJECT_NAME": "TERRASAR-X", "OBJECT_ID": "2007-026A", "EPOCH": "2025-12-25T13:30:40.378176", "MEAN_MOTION": 15.19155603, "ECCENTRICITY": 0.0001851, "INCLINATION": 97.4447, "RA_OF_ASC_NODE": 4.756, "ARG_OF_PERICENTER": 79.9289, "MEAN_ANOMALY": 280.2154, "EPHEMERIS_TYPE": 0, "CLASSIFICATION_TYPE": "U", "NORAD_CAT_ID": 31698, "ELEMENT_SET_NO": 999, "REV_AT_EPOCH": 2686, "BSTAR": 7.0738e-05, "MEAN_MOTION_DOT": 1.419e-05, "MEAN_MOTION_DDOT": 0}, "tle": {"line1": "1 31698U 07026A   25359.56296734  .00001419  00000+0  70738-4 0  9991", "line2": "2 31698  97.4447   4.7560 0001851  79.9289 280.2154 15.19155603 26865"}}, "geometry": {"type": "Point", "coordinates": [2.2988934860670525, 22.110797283601393]}}, {"type": "Feature", "properties": {"norad_id": 32060, "name": "WORLDVIEW-1 (WV-1)", "group": "resource", "lat": -81.37099690486393, "lon": 176.13111544089125, "alt_km": 500.7465665410782, "timestamp": "2025-12-26T03:50:11.744291+00:00", "meta": {"OBJECT_NAME": "WORLDVIEW-1 (WV-1)", "OBJECT_ID": "2007-041A", "EPOCH": "2025-12-25T18:45:22.470912", "MEAN_MOTION": 15.23968273, "ECCENTRICITY": 0.0003103, "INCLINATION": 97.3821, "RA_OF_ASC_NODE": 117.0709, "ARG_OF_PERICENTER": 352.5997, "MEAN_ANOMALY": 7.5194, "EPHEMERIS_TYPE": 0, "CLASSIFICATION_TYPE": "U", "NORAD_CAT_ID": 32060, "ELEMENT_SET_NO": 999, "REV_AT_EPOCH": 1646, "BSTAR": 0.00034212, "MEAN_MOTION_DOT": 8.211e-05, "MEAN_MOTION_DDOT": 0}, "tle": {"line1": "1 32060U 07041A   25359.78151008  .00008211  00000+0  34212-3 0  9993", "line2": "2 32060  97.3821 117.0709 0003103 352.5997   7.5194 15.23968273 16464"}}, "geometry": {"type": "Point", "coordinates": [176.13111544089125, -81.37099690486393]}}]}